{
    "observed_at": "2024-08-16 23:53:00",
    "icon_url": "https://api.weather.gov/icons/land/night/skc?size=medium",
    "text_description": "Clear",
    "raw_message": "KVGT 170353Z AUTO 26004KT 10SM CLR 38/06 A2982 RMK AO2 SLP082 T03780056",
    "station_elevation_m": 672,
    "station_elevation_mi": 0.42,
    "temperature_c": 37.8,
    "temperature_f": 100.04,
    "dew_point_c": 5.6,
    "dew_point_f": 42.08,
    "wind_direction_deg_ang": 260,
    "wind_speed_kmph": 7.56,
    "wind_speed_mph": 4.7,
    "wind_gust_kmph": null,
    "wind_gust_mph": null,
    "barometric_pressure_pa": 100980,
    "barometric_pressure_inhg": 29.82,
    "sea_level_pressure_pa": 100820,
    "sea_level_pressure_inhg": 29.77,
    "visibility_m": 16090,
    "visibility_mi": 10.0,
    "max_temp_last_24h_c": null,
    "max_temp_last_24h_f": null,
    "min_temp_last_24h_c": null,
    "min_temp_last_24h_f": null,
    "precip_last_1h_mm": null,
    "precip_last_3h_mm": null,
    "precip_last_6h_mm": null,
    "relative_humidity_pc": 13.87,
    "wind_chill_c": null,
    "wind_chill_f": null,
    "heat_index_c": 35.33,
    "heat_index_f": 95.6,
    "cloud_layers": {
        "None": "Clear Sky"
    },
    "wind_direction_compass": "WSW"
}