{
    "observed_at": "2024-08-16 14:53:00",
    "icon_url": "https://api.weather.gov/icons/land/day/skc?size=medium",
    "text_description": "Clear",
    "raw_message": "KVGT 161853Z 17013G21KT 10SM CLR 39/04 A2991 RMK AO2 SLP112 T03890044",
    "station_elevation_m": 672,
    "station_elevation_mi": 0.42,
    "temperature_c": 38.9,
    "temperature_f": 102.02,
    "dew_point_c": 4.4,
    "dew_point_f": 39.92,
    "wind_direction_deg_ang": 170,
    "wind_speed_kmph": 24.12,
    "wind_speed_mph": 14.99,
    "wind_gust_kmph": null,
    "wind_gust_mph": null,
    "barometric_pressure_pa": 101290,
    "barometric_pressure_inhg": 29.91,
    "sea_level_pressure_pa": 101120,
    "sea_level_pressure_inhg": 29.86,
    "visibility_m": 16090,
    "visibility_mi": 10.0,
    "max_temp_last_24h_c": null,
    "max_temp_last_24h_f": null,
    "min_temp_last_24h_c": null,
    "min_temp_last_24h_f": null,
    "precip_last_1h_mm": null,
    "precip_last_3h_mm": null,
    "precip_last_6h_mm": null,
    "relative_humidity_pc": 12.02,
    "wind_chill_c": null,
    "wind_chill_f": null,
    "heat_index_c": 36.11,
    "heat_index_f": 97.0,
    "cloud_layers": {
        "None": "Clear Sky"
    },
    "wind_direction_compass": "SSE"
}