{
    "observed_at": "2024-08-18 18:53:00",
    "icon_url": "https://api.weather.gov/icons/land/day/skc?size=medium",
    "text_description": "Clear",
    "raw_message": "KVGT 182253Z 13013G23KT 10SM CLR 40/09 A2988 RMK AO2 SLP101 T04000094",
    "station_elevation_m": 672,
    "station_elevation_mi": 0.42,
    "temperature_c": 40,
    "temperature_f": 104.0,
    "dew_point_c": 9.4,
    "dew_point_f": 48.92,
    "wind_direction_deg_ang": 130,
    "wind_speed_kmph": 24.12,
    "wind_speed_mph": 14.99,
    "wind_gust_kmph": null,
    "wind_gust_mph": null,
    "barometric_pressure_pa": 101190,
    "barometric_pressure_inhg": 29.88,
    "sea_level_pressure_pa": 101010,
    "sea_level_pressure_inhg": 29.83,
    "visibility_m": 16090,
    "visibility_mi": 10.0,
    "max_temp_last_24h_c": null,
    "max_temp_last_24h_f": null,
    "min_temp_last_24h_c": null,
    "min_temp_last_24h_f": null,
    "precip_last_1h_mm": null,
    "precip_last_3h_mm": null,
    "precip_last_6h_mm": null,
    "relative_humidity_pc": 15.97,
    "wind_chill_c": null,
    "wind_chill_f": null,
    "heat_index_c": 38.25,
    "heat_index_f": 100.85,
    "cloud_layers": {
        "None": "Clear Sky"
    },
    "wind_direction_compass": "ESE"
}